{"type": "FeatureCollection", "features": [ {"type": "Feature", "properties": {"norad_id": 41785, "name": "ALSAT 1B", "group": "resource", "lat": 63.59743906976225, "lon": -152.84785344921653, "alt_km": 643.24136917949, "timestamp": "2025-12-25T22:42:16.653837+00:00", "meta": {"OBJECT_NAME": "ALSAT 1B", "OBJECT_ID": "2016-059C", "EPOCH": "2025-12-25T18:55:16.142592", "MEAN_MOTION": 14.72087007, "ECCENTRICITY": 0.0010748, "INCLINATION": 97.7809, "RA_OF_ASC_NODE": 11.0143, "ARG_OF_PERICENTER": 66.8924, "MEAN_ANOMALY": 293.3416, "EPHEMERIS_TYPE": 0, "CLASSIFICATION_TYPE": "U", "NORAD_CAT_ID": 41785, "ELEMENT_SET_NO": 999, "REV_AT_EPOCH": 49506, "BSTAR": 1.8726e-05, "MEAN_MOTION_DOT": 7.1e-07, "MEAN_MOTION_DDOT": 0}, "tle": {"line1": "1 41785U 16059C   25359.78838128  .00000071  00000+0  18726-4 0  9990", "line2": "2 41785  97.7809  11.0143 0010748  66.8924 293.3416 14.72087007495060"}}, "geometry": {"type": "Point", "coordinates": [-152.84785344921653, 63.59743906976225]}}, {"type": "Feature", "properties": {"norad_id": 41787, "name": "PATHFINDER 1", "group": "resource", "lat": -31.797783934311596, "lon": 6.990628543786743, "alt_km": 669.4330453226539, "timestamp": "2025-12-25T22:42:16.653848+00:00", "meta": {"OBJECT_NAME": "PATHFINDER 1", "OBJECT_ID": "2016-059E", "EPOCH": "2025-12-25T13:01:50.658816", "MEAN_MOTION": 14.67343137, "ECCENTRICITY": 0.0029583, "INCLINATION": 97.8139, "RA_OF_ASC_NODE": 1.7224, "ARG_OF_PERICENTER": 42.0938, "MEAN_ANOMALY": 318.2533, "EPHEMERIS_TYPE": 0, "CLASSIFICATION_TYPE": "U", "NORAD_CAT_ID": 41787, "ELEMENT_SET_NO": 999, "REV_AT_EPOCH": 49424, "BSTAR": 0.00015941, "MEAN_MOTION_DOT": 8.59e-06, "MEAN_MOTION_DDOT": 0}, "tle": {"line1": "1 41787U 16059E   25359.54294744  .00000859  00000+0  15941-3 0  9995", "line2": "2 41787  97.8139   1.7224 0029583  42.0938 318.2533 14.67343137494242"}}, "geometry": {"type": "Point", "coordinates": [6.990628543786743, -31.797783934311596]}}, {"type": "Feature", "properties": {"norad_id": 41790, "name": "SCATSAT 1", "group": "resource", "lat": 25.832224851288785, "lon": -119.2442030167853, "alt_km": 616.2940412880916, "timestamp": "2025-12-25T22:42:16.653858+00:00", "meta": {"OBJECT_NAME": "SCATSAT 1", "OBJECT_ID": "2016-059H", "EPOCH": "2025-12-25T17:08:45.595968", "MEAN_MOTION": 14.78977295, "ECCENTRICITY": 0.005646, "INCLINATION": 98.1446, "RA_OF_ASC_NODE": 56.5458, "ARG_OF_PERICENTER": 87.1429, "MEAN_ANOMALY": 273.6241, "EPHEMERIS_TYPE": 0, "CLASSIFICATION_TYPE": "U", "NORAD_CAT_ID": 41790, "ELEMENT_SET_NO": 999, "REV_AT_EPOCH": 7594, "BSTAR": 0.00020775, "MEAN_MOTION_DOT": 1.519e-05, "MEAN_MOTION_DDOT": 0}, "tle": {"line1": "1 41790U 16059H   25359.71441662  .00001519  00000+0  20775-3 0  9996", "line2": "2 41790  98.1446  56.5458 0056460  87.1429 273.6241 14.78977295 75949"}}, "geometry": {"type": "Point", "coordinates": [-119.2442030167853, 25.832224851288785]}}, {"type": "Feature", "properties": {"norad_id": 41875, "name": "GOKTURK 1A", "group": "resource", "lat": -10.078658515084296, "lon": 70.67698400875523, "alt_km": 688.6376187622282, "timestamp": "2025-12-25T22:42:16.653868+00:00", "meta": {"OBJECT_NAME": "GOKTURK 1A", "OBJECT_ID": "2016-073A", "EPOCH": "2025-12-25T16:54:48.822336", "MEAN_MOTION": 14.62794611, "ECCENTRICITY": 0.0001255, "INCLINATION": 98.1425, "RA_OF_ASC_NODE": 251.8972, "ARG_OF_PERICENTER": 83.1406, "MEAN_ANOMALY": 276.9939, "EPHEMERIS_TYPE": 0, "CLASSIFICATION_TYPE": "U", "NORAD_CAT_ID": 41875, "ELEMENT_SET_NO": 999, "REV_AT_EPOCH": 48346, "BSTAR": 0.00013225, "MEAN_MOTION_DOT": 6.28e-06, "MEAN_MOTION_DDOT": 0}, "tle": {"line1": "1 41875U 16073A   25359.70473174  .00000628  00000+0  13225-3 0  9990", "line2": "2 41875  98.1425 251.8972 0001255  83.1406 276.9939 14.62794611483466"}}, "geometry": {"type": "Point", "coordinates": [70.67698400875523, -10.078658515084296]}}, {"type": "Feature", "properties": {"norad_id": 41877, "name": "RESOURCESAT-2A", "group": "resource", "lat": 79.51016575012396, "lon": 13.203685994629078, "alt_km": 813.00845375876, "timestamp": "2025-12-25T22:42:16.653879+00:00", "meta": {"OBJECT_NAME": "RESOURCESAT-2A", "OBJECT_ID": "2016-074A", "EPOCH": "2025-12-25T18:55:53.051808", "MEAN_MOTION": 14.21605004, "ECCENTRICITY": 0.0001616, "INCLINATION": 98.7736, "RA_OF_ASC_NODE": 69.5678, "ARG_OF_PERICENTER": 198.7326, "MEAN_ANOMALY": 161.3792, "EPHEMERIS_TYPE": 0, "CLASSIFICATION_TYPE": "U", "NORAD_CAT_ID": 41877, "ELEMENT_SET_NO": 999, "REV_AT_EPOCH": 46966, "BSTAR": 3.6238e-05, "MEAN_MOTION_DOT": 3.5e-07, "MEAN_MOTION_DDOT": 0}, "tle": {"line1": "1 41877U 16074A   25359.78880847  .00000035  00000+0  36238-4 0  9992", "line2": "2 41877  98.7736  69.5678 0001616 198.7326 161.3792 14.21605004469663"}}, "geometry": {"type": "Point", "coordinates": [13.203685994629078, 79.51016575012396]}}, {"type": "Feature", "properties": {"norad_id": 41948, "name": "CARTOSAT-2D", "group": "resource", "lat": 45.38820124953841, "lon": 49.632577625749335, "alt_km": 503.0647454583459, "timestamp": "2025-12-25T22:42:16.653889+00:00", "meta": {"OBJECT_NAME": "CARTOSAT-2D", "OBJECT_ID": "2017-008A", "EPOCH": "2025-12-25T17:45:39.434400", "MEAN_MOTION": 15.19193686, "ECCENTRICITY": 0.0005413, "INCLINATION": 97.4366, "RA_OF_ASC_NODE": 57.0381, "ARG_OF_PERICENTER": 115.4859, "MEAN_ANOMALY": 244.6936, "EPHEMERIS_TYPE": 0, "CLASSIFICATION_TYPE": "U", "NORAD_CAT_ID": 41948, "ELEMENT_SET_NO": 999, "REV_AT_EPOCH": 49124, "BSTAR": 0.00025403, "MEAN_MOTION_DOT": 5.279e-05, "MEAN_MOTION_DDOT": 0}, "tle": {"line1": "1 41948U 17008A   25359.74003975  .00005279  00000+0  25403-3 0  9990", "line2": "2 41948  97.4366  57.0381 0005413 115.4859 244.6936 15.19193686491246"}}, "geometry": {"type": "Point", "coordinates": [49.632577625749335, 45.38820124953841]}}, {"type": "Feature", "properties": {"norad_id": 42063, "name": "SENTINEL-2B", "group": "resource", "lat": 49.11374801287085, "lon": -97.76430618606545, "alt_km": 783.8846478846453, "timestamp": "2025-12-25T22:42:16.653899+00:00", "meta": {"OBJECT_NAME": "SENTINEL-2B", "OBJECT_ID": "2017-013A", "EPOCH": "2025-12-25T18:44:32.224128", "MEAN_MOTION": 14.30815787, "ECCENTRICITY": 0.0001192, "INCLINATION": 98.5697, "RA_OF_ASC_NODE": 72.043, "ARG_OF_PERICENTER": 89.5782, "MEAN_ANOMALY": 270.5538, "EPHEMERIS_TYPE": 0, "CLASSIFICATION_TYPE": "U", "NORAD_CAT_ID": 42063, "ELEMENT_SET_NO": 999, "REV_AT_EPOCH": 45984, "BSTAR": 6.3995e-05, "MEAN_MOTION_DOT": 1.24e-06, "MEAN_MOTION_DDOT": 0}, "tle": {"line1": "1 42063U 17013A   25359.78092852  .00000124  00000+0  63995-4 0  9994", "line2": "2 42063  98.5697  72.0430 0001192  89.5782 270.5538 14.30815787459843"}}, "geometry": {"type": "Point", "coordinates": [-97.76430618606545, 49.11374801287085]}}, {"type": "Feature", "properties": {"norad_id": 42767, "name": "CARTOSAT-2E", "group": "resource", "lat": -44.30025010926362, "lon": 64.69836377621718, "alt_km": 516.4076901581902, "timestamp": "2025-12-25T22:42:16.653909+00:00", "meta": {"OBJECT_NAME": "CARTOSAT-2E", "OBJECT_ID": "2017-036C", "EPOCH": "2025-12-25T18:09:32.826816", "MEAN_MOTION": 15.19200463, "ECCENTRICITY": 0.0002492, "INCLINATION": 97.4533, "RA_OF_ASC_NODE": 57.1716, "ARG_OF_PERICENTER": 171.3486, "MEAN_ANOMALY": 188.7792, "EPHEMERIS_TYPE": 0, "CLASSIFICATION_TYPE": "U", "NORAD_CAT_ID": 42767, "ELEMENT_SET_NO": 999, "REV_AT_EPOCH": 47181, "BSTAR": 0.00021194, "MEAN_MOTION_DOT": 4.393e-05, "MEAN_MOTION_DDOT": 0}, "tle": {"line1": "1 42767U 17036C   25359.75662994  .00004393  00000+0  21194-3 0  9993", "line2": "2 42767  97.4533  57.1716 0002492 171.3486 188.7792 15.19200463471817"}}, "geometry": {"type": "Point", "coordinates": [64.69836377621718, -44.30025010926362]}}, {"type": "Feature", "properties": {"norad_id": 42920, "name": "FORMOSAT-5", "group": "resource", "lat": 2.076869209636211, "lon": 73.69742951328786, "alt_km": 727.7404824919831, "timestamp": "2025-12-25T22:42:16.653919+00:00", "meta": {"OBJECT_NAME": "FORMOSAT-5", "OBJECT_ID": "2017-049A", "EPOCH": "2025-12-25T17:43:45.001056", "MEAN_MOTION": 14.50767916, "ECCENTRICITY": 0.0009846, "INCLINATION": 98.2438, "RA_OF_ASC_NODE": 73.7956, "ARG_OF_PERICENTER": 257.0054, "MEAN_ANOMALY": 103.0042, "EPHEMERIS_TYPE": 0, "CLASSIFICATION_TYPE": "U", "NORAD_CAT_ID": 42920, "ELEMENT_SET_NO": 999, "REV_AT_EPOCH": 44152, "BSTAR": 7.2929e-05, "MEAN_MOTION_DOT": 2.43e-06, "MEAN_MOTION_DDOT": 0}, "tle": {"line1": "1 42920U 17049A   25359.73871529  .00000243  00000+0  72929-4 0  9995", "line2": "2 42920  98.2438  73.7956 0009846 257.0054 103.0042 14.50767916441522"}}, "geometry": {"type": "Point", "coordinates": [73.69742951328786, 2.076869209636211]}}, {"type": "Feature", "properties": {"norad_id": 42969, "name": "SENTINEL-5P", "group": "resource", "lat": -8.51096983477976, "lon": -60.26071118249976, "alt_km": 831.0443248647425, "timestamp": "2025-12-25T22:42:16.653930+00:00", "meta": {"OBJECT_NAME": "SENTINEL-5P", "OBJECT_ID": "2017-064A", "EPOCH": "2025-12-25T17:40:12.395712", "MEAN_MOTION": 14.19520693, "ECCENTRICITY": 0.0001064, "INCLINATION": 98.7802, "RA_OF_ASC_NODE": 298.2061, "ARG_OF_PERICENTER": 90.9871, "MEAN_ANOMALY": 269.1427, "EPHEMERIS_TYPE": 0, "CLASSIFICATION_TYPE": "U", "NORAD_CAT_ID": 42969, "ELEMENT_SET_NO": 999, "REV_AT_EPOCH": 42495, "BSTAR": 6.8609e-05, "MEAN_MOTION_DOT": 1e-06, "MEAN_MOTION_DDOT": 0}, "tle": {"line1": "1 42969U 17064A   25359.73625458  .00000100  00000+0  68609-4 0  9995", "line2": "2 42969  98.7802 298.2061 0001064  90.9871 269.1427 14.19520693424954"}}, "geometry": {"type": "Point", "coordinates": [-60.26071118249976, -8.51096983477976]}}]}